[{"OBJECT_NAME":"HERMES-2","OBJECT_ID":"2025-052AK","EPOCH":"2026-03-09T22:17:00.130272","MEAN_MOTION":15.28021069,"ECCENTRICITY":0.00063399,"INCLINATION":97.4004,"RA_OF_ASC_NODE":324.4926,"ARG_OF_PERICENTER":99.416,"MEAN_ANOMALY":260.7796,"EPHEMERIS_TYPE":0,"CLASSIFICATION_TYPE":"U","NORAD_CAT_ID":63243,"ELEMENT_SET_NO":999,"REV_AT_EPOCH":5485,"BSTAR":0.00034839454,"MEAN_MOTION_DOT":9.456e-5,"MEAN_MOTION_DDOT":0},{"OBJECT_NAME":"STARLINK-33770","OBJECT_ID":"2025-095S","EPOCH":"2026-03-09T07:34:44.732064","MEAN_MOTION":15.27590928,"ECCENTRICITY":0.00014853,"INCLINATION":42.9963,"RA_OF_ASC_NODE":178.0606,"ARG_OF_PERICENTER":252.4528,"MEAN_ANOMALY":107.6161,"EPHEMERIS_TYPE":0,"CLASSIFICATION_TYPE":"U","NORAD_CAT_ID":63906,"ELEMENT_SET_NO":999,"REV_AT_EPOCH":4772,"BSTAR":0.0011855791,"MEAN_MOTION_DOT":0.00032518,"MEAN_MOTION_DDOT":0}]
