HERMES-2                
1 63243U 25052AK  26068.92847372  .00009456  00000+0  34839-3 0  9999
2 63243  97.4004 324.4926 0006340  99.4160 260.7796 15.28021069 54859
STARLINK-33770          
1 63906U 25095S   26068.31579551  .00032518  00000+0  11856-2 0  9994
2 63906  42.9963 178.0606 0001485 252.4528 107.6161 15.27590928 47723
